GLOBALSTAR M023         
1 25621U 99004A   24247.91018669 -.00000004  00000+0  55269-3 0  9991
2 25621  52.0090 205.1455 0009769 214.8846 162.9147 12.62467737179574
GLOBALSTAR M040         
1 25622U 99004B   24247.64893338 -.00000075  00000+0  16192-3 0  9996
2 25622  51.9899 209.6682 0000871 105.0894  65.8422 12.61981756179073
GLOBALSTAR M036         
1 25623U 99004C   24247.82876866  .00000080  00000+0  23692-2 0  9991
2 25623  51.9950 275.0890 0010989 220.8751 310.2194 11.86582584144986
GLOBALSTAR M038         
1 25624U 99004D   24247.73726593 -.00000056  00000+0  31980-3 0  9997
2 25624  51.9963 176.5020 0001507 163.0080 227.5750 12.32506855167050
GLOBALSTAR M022         
1 25649U 99012A   24247.53968775 -.00000082  00000+0  59969-4 0  9998
2 25649  52.0077 350.1346 0001947 331.4252  42.2265 12.02487676141899
GLOBALSTAR M041         
1 25650U 99012B   24247.63514560 -.00000073  00000+0  15704-3 0  9998
2 25650  51.9991 222.5878 0002660 114.5791 245.5322 11.96660368143973
GLOBALSTAR M046         
1 25651U 99012C   24247.49117245 -.00000013  00000+0  83238-3 0  9993
2 25651  52.0062 310.8685 0002266  50.0429  80.0713 12.09394596148979
GLOBALSTAR M037         
1 25652U 99012D   24247.67053942 -.00000045  00000+0  32503-3 0  9991
2 25652  52.0032 336.6002 0001365 263.5564 261.5911 12.62416502175085
